NORAD_CAT_ID,OBJECT_NAME,OBJECT_TYPE,EPOCH,MEAN_MOTION,ECCENTRICITY,INCLINATION,RA_OF_ASC_NODE,ARG_OF_PERICENTER,MEAN_ANOMALY,BSTAR,MEAN_MOTION_DOT,MEAN_MOTION_DDOT,TLE_LINE0,TLE_LINE1,TLE_LINE2,SEMIMAJOR_AXIS,PERIOD,APOGEE,PERIGEE,DECAYED
52337.0,STARLINK-3797,PAYLOAD,2024-07-26 09:24:57,15.08842486,0.0001283,53.2183,343.5598,96.172,263.9418,5.4708e-05,5.83e-06,0.0,0 STARLINK-3797,1 52337U 22045G   24208.39232715  .00000583  00000-0  54708-4 0  9995,2 52337  53.2183 343.5598 0001283  96.1720 263.9418 15.08842486126378,6917.873,95.437,540.625,538.85,0.0
52337.0,STARLINK-3797,PAYLOAD,2024-07-26 17:21:51,15.08851044,0.0001468,53.2162,342.0722,90.9079,269.2081,0.000131,1.798e-05,0.0,0 STARLINK-3797,1 52337U 22045G   24208.72351780  .00001798  00000-0  13100-3 0  9995,2 52337  53.2162 342.0722 0001468  90.9079 269.2081 15.08851044126423,6917.847,95.437,540.727,538.696,0.0
52337.0,STARLINK-3797,PAYLOAD,2024-07-27 18:48:03,15.08831315,0.0001212,53.2177,337.3143,83.019,277.094,-5.0587e-05,-1.093e-05,0.0,0 STARLINK-3797,1 52337U 22045G   24209.78337954 -.00001093  00000-0 -50587-4 0  9990,2 52337  53.2177 337.3143 0001212  83.0190 277.0940 15.08831315126584,6917.907,95.438,540.61,538.933,0.0
52337.0,STARLINK-3797,PAYLOAD,2024-07-28 01:09:36,15.08834065,0.0001575,53.2175,336.126,86.8947,273.2226,-4.4859e-06,-3.59e-06,0.0,0 STARLINK-3797,1 52337U 22045G   24210.04833779 -.00000359  00000-0 -44859-5 0  9997,2 52337  53.2175 336.1260 0001575  86.8947 273.2226 15.08834065126627,6917.899,95.438,540.853,538.674,0.0
52337.0,STARLINK-3797,PAYLOAD,2024-07-28 12:17:17,15.08849745,0.0001697,53.2189,334.042,92.3615,267.7572,1.0773e-06,-2.71e-06,0.0,0 STARLINK-3797,1 52337U 22045G   24210.51200803 -.00000271  00000-0  10773-5 0  9995,2 52337  53.2189 334.0420 0001697  92.3615 267.7572 15.08849745126696,6917.851,95.437,540.89,538.542,0.0
52337.0,STARLINK-3797,PAYLOAD,2024-07-28 15:28:03,15.08852247,0.000147,53.2194,333.4493,94.6997,265.4163,4.2125e-05,3.83e-06,0.0,0 STARLINK-3797,1 52337U 22045G   24210.64448210  .00000383  00000-0  42125-4 0  9993,2 52337  53.2194 333.4493 0001470  94.6997 265.4163 15.08852247126717,6917.843,95.437,540.725,538.691,0.0
52337.0,STARLINK-3797,PAYLOAD,2024-07-29 01:00:22,15.08837927,0.0001692,53.2195,331.6629,85.2911,274.8275,0.00017295,2.465e-05,0.0,0 STARLINK-3797,1 52337U 22045G   24211.04193106  .00002465  00000-0  17295-3 0  9991,2 52337  53.2195 331.6629 0001692  85.2911 274.8275 15.08837927126779,6917.887,95.438,540.922,538.581,0.0
52337.0,STARLINK-3797,PAYLOAD,2024-07-29 20:05:00,15.08839882,0.0002318,53.2191,328.0927,86.6863,273.4395,0.00023245,3.413e-05,0.0,0 STARLINK-3797,1 52337U 22045G   24211.83681254  .00003413  00000-0  23245-3 0  9990,2 52337  53.2191 328.0927 0002318  86.6863 273.4395 15.08839882126896,6917.881,95.438,541.349,538.142,0.0
52337.0,STARLINK-3797,PAYLOAD,2024-07-30 00:51:10,15.08832505,0.000163,53.2194,327.2028,84.93,275.1878,3.0475e-05,1.97e-06,0.0,0 STARLINK-3797,1 52337U 22045G   24212.03554053  .00000197  00000-0  30475-4 0  9999,2 52337  53.2194 327.2028 0001630  84.9300 275.1878 15.08832505126929,6917.903,95.438,540.896,538.641,0.0
52337.0,STARLINK-3797,PAYLOAD,2024-07-30 16:45:01,15.08846657,0.0001628,53.2188,324.2294,85.9526,274.1652,-3.7957e-05,-8.92e-06,0.0,0 STARLINK-3797,1 52337U 22045G   24212.69793335 -.00000892  00000-0 -37957-4 0  9995,2 52337  53.2188 324.2294 0001628  85.9526 274.1652 15.08846657127026,6917.86,95.437,540.851,538.599,0.0
52337.0,STARLINK-3797,PAYLOAD,2024-07-31 13:25:02,15.08837575,0.0001064,53.2165,320.3649,115.3898,244.7204,-9.8602e-05,-1.857e-05,0.0,0 STARLINK-3797,1 52337U 22045G   24213.55906225 -.00001857  00000-0 -98602-4 0  9991,2 52337  53.2165 320.3649 0001064 115.3898 244.7204 15.08837575127155,6917.888,95.438,540.489,539.017,0.0
52337.0,STARLINK-3797,PAYLOAD,2024-07-31 15:00:25,15.08841154,0.0001408,53.2174,320.0669,97.7071,262.4081,-6.2086e-05,-1.276e-05,0.0,0 STARLINK-3797,1 52337U 22045G   24213.62530054 -.00001276  00000-0 -62086-4 0  9994,2 52337  53.2174 320.0669 0001408  97.7071 262.4081 15.08841154127161,6917.877,95.437,540.716,538.768,0.0
52337.0,STARLINK-3797,PAYLOAD,2024-08-01 00:32:44,15.08847256,0.0001314,53.2177,318.2831,96.8151,263.2991,1.6736e-06,-2.61e-06,0.0,0 STARLINK-3797,1 52337U 22045G   24214.02273468 -.00000261  00000-0  16736-5 0  9996,2 52337  53.2177 318.2831 0001314  96.8151 263.2991 15.08847256127224,6917.858,95.437,540.632,538.814,0.0
52337.0,STARLINK-3797,PAYLOAD,2024-08-01 13:15:47,15.08870037,0.0001064,53.2171,315.9037,85.6072,274.5042,-9.0165e-06,-4.31e-06,0.0,0 STARLINK-3797,1 52337U 22045G   24214.55263537 -.00000431  00000-0 -90165-5 0  9998,2 52337  53.2171 315.9037 0001064  85.6072 274.5042 15.08870037127304,6917.789,95.436,540.39,538.918,0.0
52337.0,STARLINK-3797,PAYLOAD,2024-08-02 00:23:30,15.08852452,0.0001057,53.2167,313.8242,90.2611,269.8502,0.00038565,5.857e-05,0.0,0 STARLINK-3797,1 52337U 22045G   24215.01633007  .00005857  00000-0  38565-3 0  9992,2 52337  53.2167 313.8242 0001057  90.2611 269.8502 15.08852452127373,6917.842,95.437,540.439,538.976,0.0
52337.0,STARLINK-3797,PAYLOAD,2024-08-02 13:06:37,15.08833861,0.0001441,53.2174,311.4454,104.7295,255.3857,-6.2803e-05,-1.287e-05,0.0,0 STARLINK-3797,1 52337U 22045G   24215.54626225 -.00001287  00000-0 -62803-4 0  9992,2 52337  53.2174 311.4454 0001441 104.7295 255.3857 15.08833861127451,6917.899,95.438,540.761,538.767,0.0
52337.0,STARLINK-3797,PAYLOAD,2024-08-02 16:17:23,15.08838624,0.0001219,53.2167,310.8476,102.6043,257.5086,1.2321e-05,-9.2e-07,0.0,0 STARLINK-3797,1 52337U 22045G   24215.67873979 -.00000092  00000-0  12321-4 0  9998,2 52337  53.2167 310.8476 0001219 102.6043 257.5086 15.08838624127473,6917.885,95.438,540.593,538.906,0.0
52337.0,STARLINK-3797,PAYLOAD,2024-08-03 11:22:00,15.08847858,0.000144,53.2179,307.2811,104.1128,256.0024,5.7597e-05,6.29e-06,0.0,0 STARLINK-3797,1 52337U 22045G   24216.47361525  .00000629  00000-0  57597-4 0  9995,2 52337  53.2179 307.2811 0001440 104.1128 256.0024 15.08847858127594,6917.856,95.437,540.718,538.725,0.0
52337.0,STARLINK-3797,PAYLOAD,2024-08-03 22:29:42,15.08848069,0.0001443,53.2176,305.1993,105.9735,254.1416,0.0001405,1.949e-05,0.0,0 STARLINK-3797,1 52337U 22045G   24216.93729435  .00001949  00000-0  14050-3 0  9996,2 52337  53.2176 305.1993 0001443 105.9735 254.1416 15.08848069127662,6917.856,95.437,540.719,538.722,0.0
52337.0,STARLINK-3797,PAYLOAD,2024-08-04 12:48:10,15.08852166,0.0001526,53.2181,302.5305,110.4725,249.6431,0.00039188,5.956e-05,0.0,0 STARLINK-3797,1 52337U 22045G   24217.53345414  .00005956  00000-0  39188-3 0  9995,2 52337  53.2181 302.5305 0001526 110.4725 249.6431 15.08852166127757,6917.843,95.437,540.764,538.653,0.0
52337.0,STARLINK-3797,PAYLOAD,2024-08-04 22:20:28,15.08862515,0.0001606,53.2178,300.7468,113.5281,246.588,0.00040175,6.116e-05,0.0,0 STARLINK-3797,1 52337U 22045G   24217.93088781  .00006116  00000-0  40175-3 0  9997,2 52337  53.2178 300.7468 0001606 113.5281 246.5880 15.08862515127813,6917.812,95.436,540.788,538.566,0.0
52337.0,STARLINK-3797,PAYLOAD,2024-08-05 12:38:57,15.08847572,0.0002116,53.2192,298.071,121.1647,238.9553,1.7022e-05,-1.7e-07,0.0,0 STARLINK-3797,1 52337U 22045G   24218.52704871 -.00000017  00000-0  17022-4 0  9999,2 52337  53.2192 298.0710 0002116 121.1647 238.9553 15.08847572127904,6917.857,95.437,541.186,538.258,0.0
52337.0,STARLINK-3797,PAYLOAD,2024-08-05 22:11:16,15.08836298,0.0001548,53.2168,296.2854,108.5506,251.5654,-6.2652e-05,-1.285e-05,0.0,0 STARLINK-3797,1 52337U 22045G   24218.92449542 -.00001285  00000-0 -62652-4 0  9992,2 52337  53.2168 296.2854 0001548 108.5506 251.5654 15.08836298127969,6917.892,95.438,540.828,538.686,0.0
52337.0,STARLINK-3797,PAYLOAD,2024-08-06 04:32:49,15.08830873,0.0001972,53.2181,295.0942,104.3579,255.7632,-0.00013124,-2.376e-05,0.0,0 STARLINK-3797,1 52337U 22045G   24219.18946035 -.00002376  00000-0 -13124-3 0  9991,2 52337  53.2181 295.0942 0001972 104.3579 255.7632 15.08830873128005,6917.908,95.438,541.137,538.409,0.0
52337.0,STARLINK-3797,PAYLOAD,2024-08-06 12:29:45,15.08825666,0.0001603,53.2172,293.6049,99.9528,260.1646,-0.00022306,-3.835e-05,0.0,0 STARLINK-3797,1 52337U 22045G   24219.52066486 -.00003835  00000-0 -22306-3 0  9995,2 52337  53.2172 293.6049 0001603  99.9528 260.1646 15.08825666128055,6917.924,95.438,540.898,538.68,0.0
52337.0,STARLINK-3797,PAYLOAD,2024-08-07 12:20:31,15.08855591,0.0001285,53.2155,289.1441,93.2208,266.8932,0.00052924,8.149e-05,0.0,0 STARLINK-3797,1 52337U 22045G   24220.51425782  .00008149  00000-0  52924-3 0  9994,2 52337  53.2155 289.1441 0001285  93.2208 266.8932 15.08855591128208,6917.833,95.437,540.587,538.809,0.0
52337.0,STARLINK-3797,PAYLOAD,2024-08-08 10:35:55,15.08852683,0.0001664,53.2154,284.977,129.2197,230.8943,0.00037281,5.652e-05,0.0,0 STARLINK-3797,1 52337U 22045G   24221.44161673  .00005652  00000-0  37281-3 0  9998,2 52337  53.2154 284.9770 0001664 129.2197 230.8943 15.08852683128340,6917.842,95.437,540.858,538.555,0.0
52337.0,STARLINK-3797,PAYLOAD,2024-08-08 21:43:38,15.08846567,0.0001586,53.2148,282.9007,79.2342,280.8828,0.00017702,2.531e-05,0.0,0 STARLINK-3797,1 52337U 22045G   24221.90530130  .00002531  00000-0  17702-3 0  9996,2 52337  53.2148 282.9007 0001586  79.2342 280.8828 15.08846567128412,6917.86,95.437,540.822,538.628,0.0
52337.0,STARLINK-3797,PAYLOAD,2024-08-09 10:26:42,15.08846477,0.0001574,53.2155,280.5179,95.5598,264.5573,-6.3046e-05,-1.291e-05,0.0,0 STARLINK-3797,1 52337U 22045G   24222.43521906 -.00001291  00000-0 -63046-4 0  9993,2 52337  53.2155 280.5179 0001574  95.5598 264.5573 15.08846477128499,6917.861,95.437,540.814,538.637,0.0
52337.0,STARLINK-3797,PAYLOAD,2024-08-10 03:55:57,15.08840335,0.0001634,53.2168,277.246,107.7952,252.3219,0.0001053,1.388e-05,0.0,0 STARLINK-3797,1 52337U 22045G   24223.16386268  .00001388  00000-0  10530-3 0  9998,2 52337  53.2168 277.2460 0001634 107.7952 252.3219 15.08840335128608,6917.879,95.438,540.875,538.614,0.0
